[{"OBJECT_NAME":"ORBCOMM FM32","OBJECT_ID":"1999-065C","EPOCH":"2026-03-09T01:02:29.080032","MEAN_MOTION":14.3696516,"ECCENTRICITY":0.00057226,"INCLINATION":45.0154,"RA_OF_ASC_NODE":287.2018,"ARG_OF_PERICENTER":281.4865,"MEAN_ANOMALY":78.534,"EPHEMERIS_TYPE":0,"CLASSIFICATION_TYPE":"U","NORAD_CAT_ID":25982,"ELEMENT_SET_NO":999,"REV_AT_EPOCH":37268,"BSTAR":0.00040930249,"MEAN_MOTION_DOT":1.082e-5,"MEAN_MOTION_DDOT":0},{"OBJECT_NAME":"METEOR 2-10","OBJECT_ID":"1983-109A","EPOCH":"2026-03-09T14:31:57.849024","MEAN_MOTION":14.27249328,"ECCENTRICITY":0.0090816,"INCLINATION":81.1579,"RA_OF_ASC_NODE":97.6835,"ARG_OF_PERICENTER":131.4402,"MEAN_ANOMALY":229.4626,"EPHEMERIS_TYPE":0,"CLASSIFICATION_TYPE":"U","NORAD_CAT_ID":14452,"ELEMENT_SET_NO":999,"REV_AT_EPOCH":20321,"BSTAR":5.3722e-5,"MEAN_MOTION_DOT":1.51e-6,"MEAN_MOTION_DDOT":0}]
